[{"OBJECT_NAME":"STARLINK-4327","OBJECT_ID":"2022-077AN","EPOCH":"2026-03-09T22:36:46.173312","MEAN_MOTION":15.05648622,"ECCENTRICITY":0.00023609,"INCLINATION":97.6022,"RA_OF_ASC_NODE":251.4886,"ARG_OF_PERICENTER":90.4217,"MEAN_ANOMALY":269.728,"EPHEMERIS_TYPE":0,"CLASSIFICATION_TYPE":"U","NORAD_CAT_ID":53079,"ELEMENT_SET_NO":999,"REV_AT_EPOCH":20102,"BSTAR":0.00030420672,"MEAN_MOTION_DOT":4.331e-5,"MEAN_MOTION_DDOT":0},{"OBJECT_NAME":"OBJECT B","OBJECT_ID":"2025-226B","EPOCH":"2026-03-09T23:02:31.139232","MEAN_MOTION":15.09715314,"ECCENTRICITY":0.00204156,"INCLINATION":97.6443,"RA_OF_ASC_NODE":147.8366,"ARG_OF_PERICENTER":114.3969,"MEAN_ANOMALY":245.9393,"EPHEMERIS_TYPE":0,"CLASSIFICATION_TYPE":"U","NORAD_CAT_ID":65939,"ELEMENT_SET_NO":999,"REV_AT_EPOCH":2260,"BSTAR":0.00038297064,"MEAN_MOTION_DOT":6.14e-5,"MEAN_MOTION_DDOT":0}]
